OBJECT_NAME,OBJECT_ID,EPOCH,MEAN_MOTION,ECCENTRICITY,INCLINATION,RA_OF_ASC_NODE,ARG_OF_PERICENTER,MEAN_ANOMALY,EPHEMERIS_TYPE,CLASSIFICATION_TYPE,NORAD_CAT_ID,ELEMENT_SET_NO,REV_AT_EPOCH,BSTAR,MEAN_MOTION_DOT,MEAN_MOTION_DDOT
DONGPO 01,2022-098K,2026-05-20T12:08:58.838784,15.67662694,.0000824,97.5555,270.0092,158.5264,201.6031,0,U,53453,999,21041,.51844E-3,.56706E-3,0
STARLINK-4400,2022-099D,2026-05-20T09:34:17.909760,15.05621081,.0001225,97.4642,260.5304,194.2638,165.8555,0,U,53468,999,20676,.39331E-3,.5616E-4,0
STARLINK-4621,2022-105AE,2026-05-20T04:51:11.094336,15.05649914,.0002227,97.4703,20.3497,81.6187,278.5292,0,U,53676,999,20399,.20797444E-4,.241E-5,0
SHERPA-LTC2,2022-107BG,2026-05-20T12:07:56.296416,14.69258887,.0397257,53.2341,337.4872,148.6291,213.9054,0,U,53754,999,19847,.27703E-3,.5399E-4,0
CENTISPACE-1 S3,2022-108A,2026-05-20T12:07:44.279904,14.61223256,.0008189,53.5313,169.7229,271.3494,88.6543,0,U,53757,999,19748,.44549E-4,.32E-6,0
CENTISPACE-1 S4,2022-108B,2026-05-20T12:03:35.275104,14.61896865,.00078,53.5288,167.3831,256.8774,103.1331,0,U,53758,999,19751,.51428E-4,.69E-6,0
BLUEWALKER-3,2022-111AL,2026-05-20T10:24:10.063584,15.37889357,.0007439,53.2272,164.2296,87.6619,272.5238,0,U,53807,999,20593,.92433E-4,.3102E-4,0
YUNHAI-1 03,2022-115A,2026-05-20T12:45:34.413984,14.32697535,.0005796,98.5534,139.0311,120.5808,239.5948,0,U,53877,999,19155,.10101E-3,.231E-5,0
CENTISPACE-1 S5,2022-126A,2026-05-20T13:10:34.463136,14.62957380,.0012998,54.9996,323.5550,19.0310,341.1167,0,U,54020,999,19299,.1174E-3,.417E-5,0
CENTISPACE-1 S6,2022-126B,2026-05-20T12:41:11.654304,14.62245704,.0014857,54.9999,325.3746,17.9665,342.1851,0,U,54021,999,19295,.94937E-4,.294E-5,0
OTB-3-GAZELLE,2022-127A,2026-05-20T10:56:36.599424,14.42663178,.0011821,98.3940,132.5842,272.8630,87.1207,0,U,54023,999,19036,.35612E-4,.75E-6,0
ASO-S,2022-129A,2026-05-20T11:36:29.889792,14.52046194,.0014436,98.2752,145.9611,172.6057,187.5354,0,U,54029,999,19140,.39284E-4,.114E-5,0
HJ-2E,2022-132A,2026-05-20T13:00:39.728736,15.21850583,.0022649,97.3804,145.4272,105.3674,255.0067,0,U,54035,999,20021,.23871E-3,.5394E-4,0
COSMOS 2561,2022-137A,2026-05-20T11:45:22.754016,15.50931925,.001175,96.9203,200.5370,123.1954,237.0427,0,U,54109,999,20205,.17154E-3,.9873E-4,0
GONETS-M 23,2022-139A,2026-05-20T13:43:25.830336,12.42889609,.0020593,82.5090,5.4583,283.2031,76.6751,0,U,54150,999,16221,.20137E-3,.38E-6,0
GONETS-M 24,2022-139B,2026-05-20T13:04:43.354272,12.42890201,.0015923,82.5006,4.5538,294.6914,65.2507,0,U,54151,999,16221,.20627E-3,.38E-6,0
GONETS-M 25,2022-139C,2026-05-20T12:45:04.363200,12.42889251,.0019818,82.5072,5.2336,292.6297,67.2687,0,U,54152,999,16221,.69426E-4,.19E-6,0
SKIF-D,2022-139D,2026-05-19T11:27:00.358272,5.00437151,.00074218,89.9550,96.6762,212.2337,147.7544,0,U,54153,999,6267,0,.23E-6,0
MATS,2022-147A,2026-05-20T09:29:03.772320,15.05164844,.0010582,97.6833,142.1175,298.8722,61.1442,0,U,54227,999,19358,.14027E-3,.1938E-4,0
JILIN-1 GAOFEN 03D54,2022-155D,2026-05-20T12:51:32.459040,15.84805427,.0001218,97.6117,290.2816,176.9242,183.2035,0,U,54254,999,19590,.54737E-3,.127974E-2,0
EOS-6 (OCEANSAT-3),2022-158A,2026-05-20T13:43:56.343360,14.47022569,.0002118,98.3519,239.1352,77.9846,282.1583,0,U,54361,999,18384,.59044E-4,.171E-5,0
DONGPO 09,2022-167D,2026-05-20T12:39:33.450336,15.35656906,.0002114,97.6885,310.3176,187.0832,173.0381,0,U,54685,999,19120,.23668E-3,.812E-4,0
DONGPO 08,2022-167E,2026-05-20T12:36:31.770144,15.33042160,.0006838,97.6847,307.6231,262.3292,97.7172,0,U,54686,999,19108,.22498E-3,.7101E-4,0
2022-167F,2022-167F,2026-05-20T06:42:40.933152,15.82523134,.0003077,97.6158,324.9705,164.2247,195.9117,0,U,54687,999,19240,.53708E-3,.112618E-2,0
DONGPO 10,2022-167H,2026-05-20T13:06:49.912992,15.33828688,.0004767,97.6931,309.5313,196.1506,163.9584,0,U,54689,999,19112,.2361E-3,.7642E-4,0
JILIN-1 GAOFEN 03D48,2022-167P,2026-05-20T13:23:01.315968,15.34566493,.0006035,97.6865,308.9124,203.5348,156.5618,0,U,54695,999,19115,.23902E-3,.7924E-4,0
STAR VIBE,2023-001A,2026-05-20T11:08:56.596416,15.41780241,.0005402,97.3180,204.8314,196.6167,163.4904,0,U,55009,999,18795,.25426E-3,.1068E-3,0
BRO-8,2023-001C,2026-05-20T12:18:58.428000,15.47237286,.0005782,97.3223,205.3339,203.5095,156.5892,0,U,55011,999,18792,.42939E-3,.21807E-3,0
CONNECTA T1.2,2023-001D,2026-05-20T11:14:55.745664,15.48539001,.0006604,97.3283,210.7093,180.7230,179.4012,0,U,55012,999,18825,.56168E-3,.2991E-3,0
BIRKELAND,2023-001G,2026-05-20T12:39:49.508640,15.39539693,.0006588,97.3351,208.4362,189.5027,170.6095,0,U,55015,999,18809,.18247E-3,.7091E-4,0
