DONGPO 01               
1 53453U 22098K   26140.50623656  .00056706  00000+0  51844-3 0  9995
2 53453  97.5555 270.0092 0000824 158.5264 201.6031 15.67662694210416
STARLINK-4400           
1 53468U 22099D   26140.39881840  .00005616  00000+0  39331-3 0  9991
2 53468  97.4642 260.5304 0001225 194.2638 165.8555 15.05621081206768
STARLINK-4621           
1 53676U 22105AE  26140.20221174  .00000241  00000+0  20797-4 0  9994
2 53676  97.4703  20.3497 0002227  81.6187 278.5292 15.05649914203990
SHERPA-LTC2             
1 53754U 22107BG  26140.50551269  .00005399  00000+0  27703-3 0  9999
2 53754  53.2341 337.4872 0397257 148.6291 213.9054 14.69258887198473
CENTISPACE-1 S3         
1 53757U 22108A   26140.50537361  .00000032  00000+0  44549-4 0  9997
2 53757  53.5313 169.7229 0008189 271.3494  88.6543 14.61223256197486
CENTISPACE-1 S4         
1 53758U 22108B   26140.50249161  .00000069  00000+0  51428-4 0  9990
2 53758  53.5288 167.3831 0007800 256.8774 103.1331 14.61896865197513
BLUEWALKER-3            
1 53807U 22111AL  26140.43344981  .00003102  00000+0  92433-4 0  9999
2 53807  53.2272 164.2296 0007439  87.6619 272.5238 15.37889357205930
YUNHAI-1 03             
1 53877U 22115A   26140.53164831  .00000231  00000+0  10101-3 0  9996
2 53877  98.5534 139.0311 0005796 120.5808 239.5948 14.32697535191551
CENTISPACE-1 S5         
1 54020U 22126A   26140.54900999  .00000417  00000+0  11740-3 0  9999
2 54020  54.9996 323.5550 0012998  19.0310 341.1167 14.62957380192999
CENTISPACE-1 S6         
1 54021U 22126B   26140.52860711  .00000294  00000+0  94937-4 0  9998
2 54021  54.9999 325.3746 0014857  17.9665 342.1851 14.62245704192953
OTB-3-GAZELLE           
1 54023U 22127A   26140.45597916  .00000075  00000+0  35612-4 0  9999
2 54023  98.3940 132.5842 0011821 272.8630  87.1207 14.42663178190361
ASO-S                   
1 54029U 22129A   26140.48367928  .00000114  00000+0  39284-4 0  9991
2 54029  98.2752 145.9611 0014436 172.6057 187.5354 14.52046194191402
HJ-2E                   
1 54035U 22132A   26140.54212649  .00005394  00000+0  23871-3 0  9997
2 54035  97.3804 145.4272 0022649 105.3674 255.0067 15.21850583200212
COSMOS 2561             
1 54109U 22137A   26140.48984669  .00009873  00000+0  17154-3 0  9998
2 54109  96.9203 200.5370 0011750 123.1954 237.0427 15.50931925202050
GONETS-M 23             
1 54150U 22139A   26140.57182674  .00000038  00000+0  20137-3 0  9991
2 54150  82.5090   5.4583 0020593 283.2031  76.6751 12.42889609162217
GONETS-M 24             
1 54151U 22139B   26140.54494623  .00000038  00000+0  20627-3 0  9993
2 54151  82.5006   4.5538 0015923 294.6914  65.2507 12.42890201162215
GONETS-M 25             
1 54152U 22139C   26140.53130050  .00000019  00000+0  69426-4 0  9994
2 54152  82.5072   5.2336 0019818 292.6297  67.2687 12.42889251162216
SKIF-D                  
1 54153U 22139D   26139.47708748  .00000023  00000+0  00000+0 0  9994
2 54153  89.9550  96.6762 0007421 212.2337 147.7544  5.00437151 62675
MATS                    
1 54227U 22147A   26140.39518255  .00001938  00000+0  14027-3 0  9994
2 54227  97.6833 142.1175 0010582 298.8722  61.1442 15.05164844193585
JILIN-1 GAOFEN 03D54    
1 54254U 22155D   26140.53579235  .00127974  00000+0  54737-3 0  9995
2 54254  97.6117 290.2816 0001218 176.9242 183.2035 15.84805427195904
EOS-6 (OCEANSAT-3)      
1 54361U 22158A   26140.57217990  .00000171  00000+0  59044-4 0  9994
2 54361  98.3519 239.1352 0002118  77.9846 282.1583 14.47022569183847
DONGPO 09               
1 54685U 22167D   26140.52747049  .00008120  00000+0  23668-3 0  9995
2 54685  97.6885 310.3176 0002114 187.0832 173.0381 15.35656906191203
DONGPO 08               
1 54686U 22167E   26140.52536771  .00007101  00000+0  22498-3 0  9992
2 54686  97.6847 307.6231 0006838 262.3292  97.7172 15.33042160191082
2022-167F               
1 54687U 22167F   26140.27964043  .00112618  00000+0  53708-3 0  9990
2 54687  97.6158 324.9705 0003077 164.2247 195.9117 15.82523134192404
DONGPO 10               
1 54689U 22167H   26140.54641103  .00007642  00000+0  23610-3 0  9990
2 54689  97.6931 309.5313 0004767 196.1506 163.9584 15.33828688191127
JILIN-1 GAOFEN 03D48    
1 54695U 22167P   26140.55765412  .00007924  00000+0  23902-3 0  9995
2 54695  97.6865 308.9124 0006035 203.5348 156.5618 15.34566493191153
STAR VIBE               
1 55009U 23001A   26140.46454394  .00010680  00000+0  25426-3 0  9993
2 55009  97.3180 204.8314 0005402 196.6167 163.4904 15.41780241187958
BRO-8                   
1 55011U 23001C   26140.51317625  .00021807  00000+0  42939-3 0  9998
2 55011  97.3223 205.3339 0005782 203.5095 156.5892 15.47237286187929
CONNECTA T1.2           
1 55012U 23001D   26140.46870076  .00029910  00000+0  56168-3 0  9999
2 55012  97.3283 210.7093 0006604 180.7230 179.4012 15.48539001188250
BIRKELAND               
1 55015U 23001G   26140.52765635  .00007091  00000+0  18247-3 0  9995
2 55015  97.3351 208.4362 0006588 189.5027 170.6095 15.39539693188097
